#aV2011  6 14  0  0   .00000000      96 DD+AD WGS84 FIT  NGA
## 1640 172800.00000000   900.00000000 55726  .0000000000000
+   32     1  2  3  4  5  6  7  8  9 10 11 12 13 14 15 16 17
+         18 19 20 21 22 23 24 25 26 27 28 29 30 31 32  0  0
+          0  0  0  0  0  0  0  0  0  0  0  0  0  0  0  0  0
+          0  0  0  0  0  0  0  0  0  0  0  0  0  0  0  0  0
+          0  0  0  0  0  0  0  0  0  0  0  0  0  0  0  0  0
++         0  0  0  0  0  0  0  0  0  0  0  0  0  0  0  0  0
++         0  0  0  0  0  0  0  0  0  0  0  0  0  0  0  0  0
++         0  0  0  0  0  0  0  0  0  0  0  0  0  0  0  0  0
++         0  0  0  0  0  0  0  0  0  0  0  0  0  0  0  0  0
++         0  0  0  0  0  0  0  0  0  0  0  0  0  0  0  0  0
%c cc cc ccc ccc cccc cccc cccc cccc ccccc ccccc ccccc ccccc
%c cc cc ccc ccc cccc cccc cccc cccc ccccc ccccc ccccc ccccc
%f  0.0000000  0.000000000  0.00000000000  0.000000000000000
%f  0.0000000  0.000000000  0.00000000000  0.000000000000000
%i    0    0    0    0      0      0      0      0         0
%i    0    0    0    0      0      0      0      0         0
/*      NGA, ST. LOUIS,MO.                                  
/*   EPHEMERIS COMPUTED FROM  3 DAYS OF DATA                
/* CCCCCCCCCCCCCCCCCCCCCCCCCCCCCCCCCCCCCCCCCCCCCCCCCCCCCCCCC
/* CCCCCCCCCCCCCCCCCCCCCCCCCCCCCCCCCCCCCCCCCCCCCCCCCCCCCCCCC
*  2011  6 14 12 15   .00000000                                                 
P  1  21331.931048 -14409.467129  -6815.293102     91.204074                    
V  1   8638.933939   -663.625865  30078.498581       .019993                    
P  2  14773.940727   5664.707312 -21308.030996    341.664111                    
V  2  -5568.487393  26662.364607   2730.960075       .019337                    
P  3 -23583.096431  -8988.330341   8346.494349    728.518991                    
V  3  -7166.775207  -9154.959757 -28346.417734       .051158                    
P  4   8483.635879  18731.996739 -16830.545931    143.886742                    
V  4  -6904.386435  20164.268753  19545.837067       .107204                    
P  5  24482.377396     -6.775949 -10444.734548   -174.672934                    
V  5 -11821.674389   6445.041956 -27646.970641      -.056256                    
P  6 -22604.985191 -12980.504476   5864.006417    207.518822                    
V  6  -3523.855597  -7097.515661 -29860.951663      -.827455                    
P  7  -5547.560339  25843.682390    635.033263     14.314046                    
V  7  -2689.917045    206.783866 -32186.335227       .013074                    
P  8   -286.343019  24031.715740  10677.347977      8.167352                    
V  8  -5888.934842  12477.865966 -28842.614187       .001910                    
P  9  13816.951051 -15923.362745  15600.675483     86.338734                    
V  9  -2510.604583  20703.230893  22555.557258       .024250                    
P 10  12864.844744  11526.193938 -20482.631395     -3.668777                    
V 10 -24218.386100   7949.466380 -10481.185965      -.011485                    
P 11 -13853.597454  13664.992040  17616.226985   -159.437929                    
V 11  -3690.569422 -23319.083704  15261.450325      -.032374                    
P 12  22579.927703 -11774.657774  -7201.369219      2.399548                    
V 12   9487.963841   -352.041711  30420.766208       .025947                    
P 13  -2411.009502  17057.259006 -20340.196494    265.573242                    
V 13 -17869.702530 -18137.407739 -13249.450780      -.016615                    
P 14 -13793.748462 -21511.244021   7671.460321    155.959391                    
V 14   7926.859560   5493.892219  30147.206445       .022180                    
P 15  17770.339749  -2996.711858  19567.861523   -121.665731                    
V 15  17784.899469  17363.594518 -13331.869033       .023182                    
P 16 -24417.736259   -785.147380 -10775.004461   -178.935194                    
V 16  12611.285995  -5351.815551 -27838.568832      -.025379                    
P 17  14388.474406  21246.922127   7437.332291    183.762249                    
V 17  -8291.118676  -4669.876881  29727.166630      -.004647                    
P 18   4153.892729 -16913.091525  20281.095296    142.154485                    
V 18  24581.103614  -5910.186530 -10503.525631       .019386                    
P 19 -19230.606986  -1814.319966  18377.453824   -151.265115                    
V 19 -14752.261358 -17989.517128 -16856.492116      -.040742                    
P 20 -20058.281449  14635.054496  -9488.023543     49.899780                    
V 20 -12337.058062    889.132373  27934.545744       .002680                    
P 21   3311.475871 -25835.152586   3492.739974   -151.123562                    
V 21   4998.284213  -2981.367732 -31054.524695      -.025781                    
P 22  -9214.640948 -13621.106184  21046.375297    147.431780                    
V 22  25178.035197  -8047.353342   5752.512710      -.003560                    
P 23 -12677.240847   8725.311079 -21672.875374    299.259535                    
V 23 -19931.025007 -18922.049351   3695.234041      -.027736                    
P 24 -14715.431605  17649.141412  13119.004312    398.438182                    
V 24   1845.318345 -16837.468060  25111.640992       .030094                    
P 25  12404.463643 -16376.515583 -16840.981925      3.869920                    
V 25  20813.487331  -5034.556253  20277.937895       .019690                    
P 26  20925.661979  10307.068919  12470.975874    -60.198343                    
V 26  10238.315797  13171.594783 -26409.665388      -.115136                    
P 27  15311.057847  -9373.167577  20112.367775    274.891532                    
V 27  -3203.209181  23985.298416  14406.648668       .037114                    
P 28   4946.266200  14340.479203  22328.622734     44.721858                    
V 28 -26131.435094   7000.952997   1074.038975       .026690                    
P 29   4091.950821 -16173.074778 -20601.383580    215.142256                    
V 29  19330.825459  17883.829623 -10116.050847       .028705                    
P 30 -18542.273244  -6792.589218 -18188.698409     11.260946                    
V 30  20431.147723  -8944.981180 -17875.040621       .047942                    
P 31  -8898.468912 -16531.645466 -18501.470979     95.419261                    
V 31   6760.131326 -23000.123085  17321.292675       .058280                    
P 32 -25117.492808   7393.836915  -2513.041172   -273.039521                    
V 32  -4212.665075  -2509.315575  31689.305584      -.071485                    
EOF
